[{"OBJECT_NAME":"FLOCK 4G-17","OBJECT_ID":"2025-009CA","EPOCH":"2026-03-09T22:51:51.984864","MEAN_MOTION":15.27385439,"ECCENTRICITY":0.00036407,"INCLINATION":97.3966,"RA_OF_ASC_NODE":151.0229,"ARG_OF_PERICENTER":339.6132,"MEAN_ANOMALY":20.4962,"EPHEMERIS_TYPE":0,"CLASSIFICATION_TYPE":"U","NORAD_CAT_ID":62681,"ELEMENT_SET_NO":999,"REV_AT_EPOCH":12139,"BSTAR":0.00053710713,"MEAN_MOTION_DOT":0.00014342,"MEAN_MOTION_DDOT":0},{"OBJECT_NAME":"STARLINK-32740","OBJECT_ID":"2025-014V","EPOCH":"2026-03-09T05:49:42.043872","MEAN_MOTION":15.27588843,"ECCENTRICITY":0.00018429,"INCLINATION":43.0001,"RA_OF_ASC_NODE":156.5188,"ARG_OF_PERICENTER":269.0252,"MEAN_ANOMALY":91.0389,"EPHEMERIS_TYPE":0,"CLASSIFICATION_TYPE":"U","NORAD_CAT_ID":62754,"ELEMENT_SET_NO":999,"REV_AT_EPOCH":6319,"BSTAR":0.0014503161,"MEAN_MOTION_DOT":0.00039875,"MEAN_MOTION_DDOT":0}]
